NORAD_CAT_ID,OBJECT_NAME,OBJECT_TYPE,EPOCH,MEAN_MOTION,ECCENTRICITY,INCLINATION,RA_OF_ASC_NODE,ARG_OF_PERICENTER,MEAN_ANOMALY,BSTAR,MEAN_MOTION_DOT,MEAN_MOTION_DDOT,TLE_LINE0,TLE_LINE1,TLE_LINE2,SEMIMAJOR_AXIS,PERIOD,APOGEE,PERIGEE,DECAYED
52456.0,STARLINK-3896,PAYLOAD,2024-08-18 00:39:05,15.08839411,0.0001211,53.2148,101.944,75.2372,284.8754,3.807e-05,3.18e-06,0.0,0 STARLINK-3896,1 52456U 22049F   24231.02715257  .00000318  00000-0  38070-4 0  9994,2 52456  53.2148 101.9440 0001211  75.2372 284.8754 15.08839411126420,6917.882,95.438,540.585,538.909,0.0
52456.0,STARLINK-3896,PAYLOAD,2024-08-18 21:19:06,15.08859766,0.0001459,53.2159,98.0819,70.8516,289.2634,0.00036653,5.553e-05,0.0,0 STARLINK-3896,1 52456U 22049F   24231.88826469  .00005553  00000-0  36653-3 0  9996,2 52456  53.2159  98.0819 0001459  70.8516 289.2634 15.08859766126558,6917.82,95.436,540.694,538.676,0.0
52456.0,STARLINK-3896,PAYLOAD,2024-08-19 08:26:48,15.08844771,0.0001327,53.2149,96.0002,84.6718,275.4426,0.0004015,6.109e-05,0.0,0 STARLINK-3896,1 52456U 22049F   24232.35194822  .00006109  00000-0  40150-3 0  9995,2 52456  53.2149  96.0002 0001327  84.6718 275.4426 15.08844771126624,6917.866,95.437,540.649,538.813,0.0
52456.0,STARLINK-3896,PAYLOAD,2024-08-19 21:09:53,15.08840479,0.0002016,53.2143,93.6226,78.2595,281.8624,4.6559e-05,4.53e-06,0.0,0 STARLINK-3896,1 52456U 22049F   24232.88187166  .00000453  00000-0  46559-4 0  9992,2 52456  53.2143  93.6226 0002016  78.2595 281.8624 15.08840479126708,6917.879,95.438,541.139,538.349,0.0
52456.0,STARLINK-3896,PAYLOAD,2024-08-20 08:17:36,15.08835583,0.0001451,53.2146,91.5389,88.5021,271.6138,0.00070512,0.0001095,0.0,0 STARLINK-3896,1 52456U 22049F   24233.34555591  .00010950  00000-0  70512-3 0  9993,2 52456  53.2146  91.5389 0001451  88.5021 271.6138 15.08835583126615,6917.894,95.438,540.763,538.755,0.0
52456.0,STARLINK-3896,PAYLOAD,2024-08-21 00:11:27,15.08852096,0.0001441,53.2154,88.5642,90.6956,269.4201,0.00081822,0.00012762,0.0,0 STARLINK-3896,1 52456U 22049F   24234.00795357  .00012762  00000-0  81822-3 0  9992,2 52456  53.2154  88.5642 0001441  90.6956 269.4201 15.08852096126874,6917.843,95.437,540.705,538.712,0.0
52456.0,STARLINK-3896,PAYLOAD,2024-08-21 20:51:28,15.08844286,0.0001542,53.216,84.6947,89.8847,270.2321,0.0001778,2.543e-05,0.0,0 STARLINK-3896,1 52456U 22049F   24234.86907426  .00002543  00000-0  17780-3 0  9996,2 52456  53.2160  84.6947 0001542  89.8847 270.2321 15.08844286127008,6917.867,95.437,540.799,538.666,0.0
